JILIN GAOFEN OBJECT A
1 68691U 26080A   26106.93147688  .00000255  00000+0  20549-4 0  9992
2 68691  97.6641 182.5718 0010978 272.3718  87.6253 15.08304498   421
JILIN GAOFEN OBJECT B
1 68692U 26080B   26106.93074301  .00002302  00000+0  14839-3 0  9993
2 68692  97.6620 182.5721 0014020 270.2297  89.7325 15.09268839   426
JILIN GAOFEN OBJECT C
1 68693U 26080C   26105.07434472  .00000506  00000+0  35821-4 0  9996
2 68693  97.6624 180.7182 0013498 278.6118  81.3581 15.09294853   140
JILIN GAOFEN OBJECT D
1 68694U 26080D   26105.07430977  .00001013  00000+0  67430-4 0  9998
2 68694  97.6682 180.7187 0014244 278.7346  81.2269 15.09349528   124
JILIN GAOFEN OBJECT E
1 68695U 26080E   26105.07430137  .00001013  00000+0  67410-4 0  9995
2 68695  97.6661 180.7168 0014555 278.1507  81.8070 15.09361236   103
JILIN GAOFEN OBJECT F
1 68696U 26080F   26105.07427363  .00001014  00000+0  67432-4 0  9998
2 68696  97.6631 180.7184 0013604 281.1130  78.8569 15.09416186   103
JILIN GAOFEN OBJECT G
1 68697U 26080G   26105.07421782  .00002560  00000+0  16347-3 0  9993
2 68697  97.6672 180.7171 0014131 282.1232  77.8414 15.09509936   109
JILIN GAOFEN OBJECT H
1 68698U 26080H   26105.07419377  .00001014  00000+0  67136-4 0  9997
2 68698  97.6665 180.7184 0013930 282.9895  76.9778 15.09549566   101
2026-083D
1 68756U 26083D   26107.09483569  .00000524  00000+0  38927-4 0  9994
2 68756  96.9492 252.3415 0010587 265.4967  94.5052 15.06598489    16
2026-083E
1 68757U 26083E   26107.15977192  .00001477  00000+0  63261-4 0  9999
2 68757  98.2473 252.4151 0061702  80.1499 280.6695 15.23009713    35
